[
    {
        "Altitude(m)": 555047.6388957705,
        "Argument of Periapsis(deg)": 0.033114955553567506,
        "Eccentricity": 0.0,
        "Inclination(deg)": 53.0,
        "Latitude(deg)": 29.976364461576576,
        "Longitude(deg)": 35.40054187899976,
        "Mean Anomaly(deg)": -218.63283566211203,
        "RAAN(deg)": 344.9507168426401,
        "Satellite Name": "Starlink Shell 1 1523",
        "Satellite Number": 1523,
        "Semi-Major Axis(m)": 6931778.249405717,
        "Time(s)": 950
    },
    {
        "Altitude(m)": 554975.0872714305,
        "Argument of Periapsis(deg)": 0.03346353403307874,
        "Eccentricity": 0.0,
        "Inclination(deg)": 53.0,
        "Latitude(deg)": 29.521938853837156,
        "Longitude(deg)": 35.858240784250604,
        "Mean Anomaly(deg)": -218.00600445855528,
        "RAAN(deg)": 344.9501980725626,
        "Satellite Name": "Starlink Shell 1 1523",
        "Satellite Number": 1523,
        "Semi-Major Axis(m)": 6931778.249405717,
        "Time(s)": 960
    },
    {
        "Altitude(m)": 554903.6532164566,
        "Argument of Periapsis(deg)": 0.03381211251258998,
        "Eccentricity": 0.0,
        "Inclination(deg)": 53.0,
        "Latitude(deg)": 29.065626077969895,
        "Longitude(deg)": 36.31149496402906,
        "Mean Anomaly(deg)": -217.37917325499862,
        "RAAN(deg)": 344.94967930248515,
        "Satellite Name": "Starlink Shell 1 1523",
        "Satellite Number": 1523,
        "Semi-Major Axis(m)": 6931778.249405717,
        "Time(s)": 970
    },
    {
        "Altitude(m)": 554833.3898629302,
        "Argument of Periapsis(deg)": 0.034160690992101214,
        "Eccentricity": 0.0,
        "Inclination(deg)": 53.0,
        "Latitude(deg)": 28.607476503217082,
        "Longitude(deg)": 36.760407464948564,
        "Mean Anomaly(deg)": -216.75234205144193,
        "RAAN(deg)": 344.94916053240763,
        "Satellite Name": "Starlink Shell 1 1523",
        "Satellite Number": 1523,
        "Semi-Major Axis(m)": 6931778.249405717,
        "Time(s)": 980
    },
    {
        "Altitude(m)": 554764.3499447616,
        "Argument of Periapsis(deg)": 0.034509269471612446,
        "Eccentricity": 0.0,
        "Inclination(deg)": 53.0,
        "Latitude(deg)": 28.147539395045936,
        "Longitude(deg)": 37.2050805220499,
        "Mean Anomaly(deg)": -216.1255108478852,
        "RAAN(deg)": 344.9486417623302,
        "Satellite Name": "Starlink Shell 1 1523",
        "Satellite Number": 1523,
        "Semi-Major Axis(m)": 6931778.249405717,
        "Time(s)": 990
    }
]